{
  "type": "FeatureCollection",
  "features": [
    {
      "type": "Feature",
      "properties": {
        "norad_id": 66617,
        "name": "STARLINK-35940",
        "group": "last-30-days",
        "lat": 44.97201073540423,
        "lon": -0.601302618000316,
        "alt_km": 317.1941805183569,
        "timestamp": "2025-12-04T10:51:48.877420+00:00",
        "meta_object_name": "STARLINK-35940",
        "meta_object_id": "2025-271A",
        "meta_epoch": "2025-12-04T04:18:16.743744",
        "meta_mean_motion": 15.82507423,
        "meta_eccentricity": 6.52e-05,
        "meta_inclination": 53.1573,
        "meta_ra_of_asc_node": 229.2826,
        "meta_arg_of_pericenter": 141.1173,
        "meta_mean_anomaly": 218.9898,
        "meta_ephemeris_type": 0,
        "meta_classification_type": "U",
        "meta_norad_cat_id": 66617,
        "meta_element_set_no": 999,
        "meta_rev_at_epoch": 286,
        "meta_bstar": -0.00075851,
        "meta_mean_motion_dot": -0.00159314,
        "meta_mean_motion_ddot": 0,
        "tle_line1": "1 66617U 25271A   25338.17936046 -.00159314  00000+0 -75851-3 0  9993",
        "tle_line2": "2 66617  53.1573 229.2826 0000652 141.1173 218.9898 15.82507423  2862"
      },
      "geometry": {
        "type": "Point",
        "coordinates": [
          -0.601302618000316,
          44.97201073540423
        ]
      }
    },
    {
      "type": "Feature",
      "properties": {
        "norad_id": 66618,
        "name": "STARLINK-35970",
        "group": "last-30-days",
        "lat": -8.376426435884593,
        "lon": 54.09544116818771,
        "alt_km": 330.3285649184927,
        "timestamp": "2025-12-04T10:51:48.877433+00:00",
        "meta_object_name": "STARLINK-35970",
        "meta_object_id": "2025-271B",
        "meta_epoch": "2025-12-04T03:59:31.177248",
        "meta_mean_motion": 15.80879452,
        "meta_eccentricity": 0.0001237,
        "meta_inclination": 53.1562,
        "meta_ra_of_asc_node": 229.1916,
        "meta_arg_of_pericenter": 133.8461,
        "meta_mean_anomaly": 226.2664,
        "meta_ephemeris_type": 0,
        "meta_classification_type": "U",
        "meta_norad_cat_id": 66618,
        "meta_element_set_no": 999,
        "meta_rev_at_epoch": 286,
        "meta_bstar": -0.0027714,
        "meta_mean_motion_dot": -0.00516414,
        "meta_mean_motion_ddot": 0,
        "tle_line1": "1 66618U 25271B   25338.16633307 -.00516414  00000+0 -27714-2 0  9999",
        "tle_line2": "2 66618  53.1562 229.1916 0001237 133.8461 226.2664 15.80879452  2863"
      },
      "geometry": {
        "type": "Point",
        "coordinates": [
          54.09544116818771,
          -8.376426435884593
        ]
      }
    },
    {
      "type": "Feature",
      "properties": {
        "norad_id": 66619,
        "name": "STARLINK-35951",
        "group": "last-30-days",
        "lat": 40.10566487073639,
        "lon": 8.727573812489585,
        "alt_km": 319.6414402967421,
        "timestamp": "2025-12-04T10:51:48.877443+00:00",
        "meta_object_name": "STARLINK-35951",
        "meta_object_id": "2025-271C",
        "meta_epoch": "2025-12-04T04:16:02.720064",
        "meta_mean_motion": 15.82239043,
        "meta_eccentricity": 7.32e-05,
        "meta_inclination": 53.157,
        "meta_ra_of_asc_node": 229.2711,
        "meta_arg_of_pericenter": 166.7997,
        "meta_mean_anomaly": 193.3046,
        "meta_ephemeris_type": 0,
        "meta_classification_type": "U",
        "meta_norad_cat_id": 66619,
        "meta_element_set_no": 999,
        "meta_rev_at_epoch": 286,
        "meta_bstar": -0.0035608,
        "meta_mean_motion_dot": -0.00692598,
        "meta_mean_motion_ddot": 0,
        "tle_line1": "1 66619U 25271C   25338.17780926 -.00692598  00000+0 -35608-2 0  9990",
        "tle_line2": "2 66619  53.1570 229.2711 0000732 166.7997 193.3046 15.82239043  2861"
      },
      "geometry": {
        "type": "Point",
        "coordinates": [
          8.727573812489585,
          40.10566487073639
        ]
      }
    },
    {
      "type": "Feature",
      "properties": {
        "norad_id": 66620,
        "name": "STARLINK-35936",
        "group": "last-30-days",
        "lat": 44.429162546614364,
        "lon": 0.5984931886604101,
        "alt_km": 321.16760755337873,
        "timestamp": "2025-12-04T10:51:48.877454+00:00",
        "meta_object_name": "STARLINK-35936",
        "meta_object_id": "2025-271D",
        "meta_epoch": "2025-12-04T00:00:02.000160",
        "meta_mean_motion": 15.82460843,
        "meta_eccentricity": 6.64e-05,
        "meta_inclination": 53.1572,
        "meta_ra_of_asc_node": 230.1793,
        "meta_arg_of_pericenter": 89.9454,
        "meta_mean_anomaly": 330.1113,
        "meta_ephemeris_type": 0,
        "meta_classification_type": "U",
        "meta_norad_cat_id": 66620,
        "meta_element_set_no": 999,
        "meta_rev_at_epoch": 284,
        "meta_bstar": -0.007829,
        "meta_mean_motion_dot": -0.01472383,
        "meta_mean_motion_ddot": 0,
        "tle_line1": "1 66620U 25271D   25338.00002315 -.01472383  00000+0 -78290-2 0  9996",
        "tle_line2": "2 66620  53.1572 230.1793 0000664  89.9454 330.1113 15.82460843  2842"
      },
      "geometry": {
        "type": "Point",
        "coordinates": [
          0.5984931886604101,
          44.429162546614364
        ]
      }
    },
    {
      "type": "Feature",
      "properties": {
        "norad_id": 66621,
        "name": "STARLINK-35847",
        "group": "last-30-days",
        "lat": -11.957665041375856,
        "lon": 56.884620823248966,
        "alt_km": 333.5371546938595,
        "timestamp": "2025-12-04T10:51:48.877464+00:00",
        "meta_object_name": "STARLINK-35847",
        "meta_object_id": "2025-271E",
        "meta_epoch": "2025-12-04T03:58:09.048000",
        "meta_mean_motion": 15.80211433,
        "meta_eccentricity": 8.97e-05,
        "meta_inclination": 53.1563,
        "meta_ra_of_asc_node": 229.1853,
        "meta_arg_of_pericenter": 156.0541,
        "meta_mean_anomaly": 204.0523,
        "meta_ephemeris_type": 0,
        "meta_classification_type": "U",
        "meta_norad_cat_id": 66621,
        "meta_element_set_no": 999,
        "meta_rev_at_epoch": 286,
        "meta_bstar": -0.0062292,
        "meta_mean_motion_dot": -0.01074039,
        "meta_mean_motion_ddot": 0,
        "tle_line1": "1 66621U 25271E   25338.16538250 -.01074039  00000+0 -62292-2 0  9997",
        "tle_line2": "2 66621  53.1563 229.1853 0000897 156.0541 204.0523 15.80211433  2862"
      },
      "geometry": {
        "type": "Point",
        "coordinates": [
          56.884620823248966,
          -11.957665041375856
        ]
      }
    },
    {
      "type": "Feature",
      "properties": {
        "norad_id": 66622,
        "name": "STARLINK-35950",
        "group": "last-30-days",
        "lat": 38.55324626698757,
        "lon": 11.188989440776698,
        "alt_km": 320.0044664573279,
        "timestamp": "2025-12-04T10:51:48.877494+00:00",
        "meta_object_name": "STARLINK-35950",
        "meta_object_id": "2025-271F",
        "meta_epoch": "2025-12-04T04:15:25.468704",
        "meta_mean_motion": 15.82227301,
        "meta_eccentricity": 4.35e-05,
        "meta_inclination": 53.1569,
        "meta_ra_of_asc_node": 229.2677,
        "meta_arg_of_pericenter": 166.2558,
        "meta_mean_anomaly": 193.8477,
        "meta_ephemeris_type": 0,
        "meta_classification_type": "U",
        "meta_norad_cat_id": 66622,
        "meta_element_set_no": 999,
        "meta_rev_at_epoch": 286,
        "meta_bstar": -0.0033912,
        "meta_mean_motion_dot": -0.0066156,
        "meta_mean_motion_ddot": 0,
        "tle_line1": "1 66622U 25271F   25338.17737811 -.00661560  00000+0 -33912-2 0  9990",
        "tle_line2": "2 66622  53.1569 229.2677 0000435 166.2558 193.8477 15.82227301  2869"
      },
      "geometry": {
        "type": "Point",
        "coordinates": [
          11.188989440776698,
          38.55324626698757
        ]
      }
    },
    {
      "type": "Feature",
      "properties": {
        "norad_id": 66623,
        "name": "STARLINK-35920",
        "group": "last-30-days",
        "lat": 35.87520723574622,
        "lon": 15.037963389875836,
        "alt_km": 320.3634741971455,
        "timestamp": "2025-12-04T10:51:48.877508+00:00",
        "meta_object_name": "STARLINK-35920",
        "meta_object_id": "2025-271G",
        "meta_epoch": "2025-12-04T04:14:24.064224",
        "meta_mean_motion": 15.82245482,
        "meta_eccentricity": 3.54e-05,
        "meta_inclination": 53.1568,
        "meta_ra_of_asc_node": 229.2635,
        "meta_arg_of_pericenter": 145.4991,
        "meta_mean_anomaly": 214.6055,
        "meta_ephemeris_type": 0,
        "meta_classification_type": "U",
        "meta_norad_cat_id": 66623,
        "meta_element_set_no": 999,
        "meta_rev_at_epoch": 286,
        "meta_bstar": -0.0034207,
        "meta_mean_motion_dot": -0.00667428,
        "meta_mean_motion_ddot": 0,
        "tle_line1": "1 66623U 25271G   25338.17666741 -.00667428  00000+0 -34207-2 0  9991",
        "tle_line2": "2 66623  53.1568 229.2635 0000354 145.4991 214.6055 15.82245482  2867"
      },
      "geometry": {
        "type": "Point",
        "coordinates": [
          15.037963389875836,
          35.87520723574622
        ]
      }
    }
  ]
}